STARLINK-30261          
1 57523U 23115C   26068.19914880  .00006542  00000+0  24713-3 0  9992
2 57523  43.0067   4.5829 0002529 262.2498  97.8066 15.27571858142274
LEO EXPRESS 1           
1 58301U 23174AX  26068.76789509  .00017303  00000+0  49741-3 0  9998
2 58301  97.5222 152.4092 0078735 115.9210 245.0174 15.32756831129655
